{
 "type": "FeatureCollection",
 "name": "oaxaca_municipalities_synthetic",
 "crs": {
  "type": "name",
  "properties": {
   "name": "urn:ogc:def:crs:OGC:1.3:CRS84"
  }
 },
 "features": [
  {
   "type": "Feature",
   "properties": {
    "cve_mun": "99001",
    "municipio": "Tlacolula Demo A",
    "region": "valles_centrales",
    "area_km2": 59.01,
    "synthetic": true
   },
   "geometry": {
    "type": "Polygon",
    "coordinates": [
     [
      [
       -96.59340241381426,
       16.750924678948707
      ],
      [
       -96.51140006834473,
       16.750924678948707
      ],
      [
       -96.51140006834473,
       16.81208521585615
      ],
      [
       -96.59340241381426,
       16.81208521585615
      ],
      [
       -96.59340241381426,
       16.750924678948707
      ]
     ]
    ]
   }
  },
  {
   "type": "Feature",
   "properties": {
    "cve_mun": "99002",
    "municipio": "Tlacolula Demo B",
    "region": "valles_centrales",
    "area_km2": 84.01,
    "synthetic": true
   },
   "geometry": {
    "type": "Polygon",
    "coordinates": [
     [
      [
       -96.55015733279339,
       17.0541082933988
      ],
      [
       -96.41878296737701,
       17.0541082933988
      ],
      [
       -96.41878296737701,
       17.108455235030274
      ],
      [
       -96.55015733279339,
       17.108455235030274
      ],
      [
       -96.55015733279339,
       17.0541082933988
      ]
     ]
    ]
   }
  },
  {
   "type": "Feature",
   "properties": {
    "cve_mun": "99003",
    "municipio": "Mitla Demo",
    "region": "valles_centrales",
    "area_km2": 68.63,
    "synthetic": true
   },
   "geometry": {
    "type": "Polygon",
    "coordinates": [
     [
      [
       -96.74340024521246,
       16.74607283873893
      ],
      [
       -96.66590920722817,
       16.74607283873893
      ],
      [
       -96.66590920722817,
       16.821340603144098
      ],
      [
       -96.74340024521246,
       16.821340603144098
      ],
      [
       -96.74340024521246,
       16.74607283873893
      ]
     ]
    ]
   }
  },
  {
   "type": "Feature",
   "properties": {
    "cve_mun": "99004",
    "municipio": "Matatl\u00e1n Demo",
    "region": "valles_centrales",
    "area_km2": 101.79,
    "synthetic": true
   },
   "geometry": {
    "type": "Polygon",
    "coordinates": [
     [
      [
       -97.03742019873248,
       16.822841782300777
      ],
      [
       -96.92542944371012,
       16.822841782300777
      ],
      [
       -96.92542944371012,
       16.90008885633094
      ],
      [
       -97.03742019873248,
       16.90008885633094
      ],
      [
       -97.03742019873248,
       16.822841782300777
      ]
     ]
    ]
   }
  },
  {
   "type": "Feature",
   "properties": {
    "cve_mun": "99005",
    "municipio": "Ocotl\u00e1n Demo",
    "region": "valles_centrales",
    "area_km2": 73.87,
    "synthetic": true
   },
   "geometry": {
    "type": "Polygon",
    "coordinates": [
     [
      [
       -96.90806878283864,
       17.015899745590968
      ],
      [
       -96.78331434630441,
       17.015899745590968
      ],
      [
       -96.78331434630441,
       17.06622468357487
      ],
      [
       -96.90806878283864,
       17.06622468357487
      ],
      [
       -96.90806878283864,
       17.015899745590968
      ]
     ]
    ]
   }
  },
  {
   "type": "Feature",
   "properties": {
    "cve_mun": "99006",
    "municipio": "Zimatl\u00e1n Demo",
    "region": "valles_centrales",
    "area_km2": 59.29,
    "synthetic": true
   },
   "geometry": {
    "type": "Polygon",
    "coordinates": [
     [
      [
       -96.47953654437777,
       17.06225713419929
      ],
      [
       -96.39231650305632,
       17.06225713419929
      ],
      [
       -96.39231650305632,
       17.120031109189878
      ],
      [
       -96.47953654437777,
       17.120031109189878
      ],
      [
       -96.47953654437777,
       17.06225713419929
      ]
     ]
    ]
   }
  },
  {
   "type": "Feature",
   "properties": {
    "cve_mun": "99007",
    "municipio": "Miahuatl\u00e1n Demo",
    "region": "sierra_sur",
    "area_km2": 43.5,
    "synthetic": true
   },
   "geometry": {
    "type": "Polygon",
    "coordinates": [
     [
      [
       -96.2722180687491,
       16.331075035842233
      ],
      [
       -96.2047984012787,
       16.331075035842233
      ],
      [
       -96.2047984012787,
       16.385910854683907
      ],
      [
       -96.2722180687491,
       16.385910854683907
      ],
      [
       -96.2722180687491,
       16.331075035842233
      ]
     ]
    ]
   }
  },
  {
   "type": "Feature",
   "properties": {
    "cve_mun": "99008",
    "municipio": "Sola de Vega Demo",
    "region": "sierra_sur",
    "area_km2": 126.76,
    "synthetic": true
   },
   "geometry": {
    "type": "Polygon",
    "coordinates": [
     [
      [
       -96.39954020121827,
       16.464843282898112
      ],
      [
       -96.27496993935632,
       16.464843282898112
      ],
      [
       -96.27496993935632,
       16.551329872232802
      ],
      [
       -96.39954020121827,
       16.551329872232802
      ],
      [
       -96.39954020121827,
       16.464843282898112
      ]
     ]
    ]
   }
  },
  {
   "type": "Feature",
   "properties": {
    "cve_mun": "99009",
    "municipio": "Yautepec Demo",
    "region": "sierra_sur",
    "area_km2": 82.43,
    "synthetic": true
   },
   "geometry": {
    "type": "Polygon",
    "coordinates": [
     [
      [
       -96.6625360927791,
       16.676143812046615
      ],
      [
       -96.57225334260244,
       16.676143812046615
      ],
      [
       -96.57225334260244,
       16.75374584361028
      ],
      [
       -96.6625360927791,
       16.75374584361028
      ],
      [
       -96.6625360927791,
       16.676143812046615
      ]
     ]
    ]
   }
  },
  {
   "type": "Feature",
   "properties": {
    "cve_mun": "99010",
    "municipio": "Pochutla Demo",
    "region": "sierra_sur",
    "area_km2": 119.65,
    "synthetic": true
   },
   "geometry": {
    "type": "Polygon",
    "coordinates": [
     [
      [
       -96.41800407818475,
       16.47693725769256
      ],
      [
       -96.28906752615988,
       16.47693725769256
      ],
      [
       -96.28906752615988,
       16.555804864955395
      ],
      [
       -96.41800407818475,
       16.555804864955395
      ],
      [
       -96.41800407818475,
       16.47693725769256
      ]
     ]
    ]
   }
  },
  {
   "type": "Feature",
   "properties": {
    "cve_mun": "99011",
    "municipio": "Putla Demo",
    "region": "sierra_sur",
    "area_km2": 59.34,
    "synthetic": true
   },
   "geometry": {
    "type": "Polygon",
    "coordinates": [
     [
      [
       -96.50500127843263,
       16.163426955757117
      ],
      [
       -96.42676941638051,
       16.163426955757117
      ],
      [
       -96.42676941638051,
       16.227896353937226
      ],
      [
       -96.50500127843263,
       16.227896353937226
      ],
      [
       -96.50500127843263,
       16.163426955757117
      ]
     ]
    ]
   }
  },
  {
   "type": "Feature",
   "properties": {
    "cve_mun": "99012",
    "municipio": "Huajuapan Demo",
    "region": "mixteca",
    "area_km2": 51.18,
    "synthetic": true
   },
   "geometry": {
    "type": "Polygon",
    "coordinates": [
     [
      [
       -98.10424808025276,
       17.088250822192737
      ],
      [
       -98.03616796589999,
       17.088250822192737
      ],
      [
       -98.03616796589999,
       17.15214950234824
      ],
      [
       -98.10424808025276,
       17.15214950234824
      ],
      [
       -98.10424808025276,
       17.088250822192737
      ]
     ]
    ]
   }
  },
  {
   "type": "Feature",
   "properties": {
    "cve_mun": "99013",
    "municipio": "Tlaxiaco Demo",
    "region": "mixteca",
    "area_km2": 63.77,
    "synthetic": true
   },
   "geometry": {
    "type": "Polygon",
    "coordinates": [
     [
      [
       -97.55912279442028,
       17.20351799814499
      ],
      [
       -97.46950831705094,
       17.20351799814499
      ],
      [
       -97.46950831705094,
       17.26399334968356
      ],
      [
       -97.55912279442028,
       17.26399334968356
      ],
      [
       -97.55912279442028,
       17.20351799814499
      ]
     ]
    ]
   }
  },
  {
   "type": "Feature",
   "properties": {
    "cve_mun": "99014",
    "municipio": "Nochixtl\u00e1n Demo",
    "region": "mixteca",
    "area_km2": 105.88,
    "synthetic": true
   },
   "geometry": {
    "type": "Polygon",
    "coordinates": [
     [
      [
       -97.93894359336076,
       17.68529467029107
      ],
      [
       -97.82710076254102,
       17.68529467029107
      ],
      [
       -97.82710076254102,
       17.765751220574423
      ],
      [
       -97.93894359336076,
       17.765751220574423
      ],
      [
       -97.93894359336076,
       17.68529467029107
      ]
     ]
    ]
   }
  },
  {
   "type": "Feature",
   "properties": {
    "cve_mun": "99015",
    "municipio": "Silacayoapan Demo",
    "region": "mixteca",
    "area_km2": 59.3,
    "synthetic": true
   },
   "geometry": {
    "type": "Polygon",
    "coordinates": [
     [
      [
       -98.01539745155239,
       17.51256266019336
      ],
      [
       -97.94232525205143,
       17.51256266019336
      ],
      [
       -97.94232525205143,
       17.581535432281242
      ],
      [
       -98.01539745155239,
       17.581535432281242
      ],
      [
       -98.01539745155239,
       17.51256266019336
      ]
     ]
    ]
   }
  },
  {
   "type": "Feature",
   "properties": {
    "cve_mun": "99016",
    "municipio": "Coixtlahuaca Demo",
    "region": "mixteca",
    "area_km2": 103.62,
    "synthetic": true
   },
   "geometry": {
    "type": "Polygon",
    "coordinates": [
     [
      [
       -97.21275463911441,
       17.428284437199775
      ],
      [
       -97.10819865961243,
       17.428284437199775
      ],
      [
       -97.10819865961243,
       17.512515149749266
      ],
      [
       -97.21275463911441,
       17.512515149749266
      ],
      [
       -97.21275463911441,
       17.428284437199775
      ]
     ]
    ]
   }
  },
  {
   "type": "Feature",
   "properties": {
    "cve_mun": "99017",
    "municipio": "Juchit\u00e1n Demo",
    "region": "istmo",
    "area_km2": 47.56,
    "synthetic": true
   },
   "geometry": {
    "type": "Polygon",
    "coordinates": [
     [
      [
       -94.42773961865079,
       16.783957426677546
      ],
      [
       -94.34941577289366,
       16.783957426677546
      ],
      [
       -94.34941577289366,
       16.83556243887275
      ],
      [
       -94.42773961865079,
       16.83556243887275
      ],
      [
       -94.42773961865079,
       16.783957426677546
      ]
     ]
    ]
   }
  },
  {
   "type": "Feature",
   "properties": {
    "cve_mun": "99018",
    "municipio": "Tehuantepec Demo",
    "region": "istmo",
    "area_km2": 87.87,
    "synthetic": true
   },
   "geometry": {
    "type": "Polygon",
    "coordinates": [
     [
      [
       -95.05989565607256,
       16.37491032288316
      ],
      [
       -94.98301702858565,
       16.37491032288316
      ],
      [
       -94.98301702858565,
       16.47205580859991
      ],
      [
       -95.05989565607256,
       16.47205580859991
      ],
      [
       -95.05989565607256,
       16.37491032288316
      ]
     ]
    ]
   }
  },
  {
   "type": "Feature",
   "properties": {
    "cve_mun": "99019",
    "municipio": "Mat\u00edas Romero Demo",
    "region": "istmo",
    "area_km2": 92.31,
    "synthetic": true
   },
   "geometry": {
    "type": "Polygon",
    "coordinates": [
     [
      [
       -94.40457639484458,
       16.424264391880328
      ],
      [
       -94.292141301621,
       16.424264391880328
      ],
      [
       -94.292141301621,
       16.494045986933358
      ],
      [
       -94.40457639484458,
       16.494045986933358
      ],
      [
       -94.40457639484458,
       16.424264391880328
      ]
     ]
    ]
   }
  },
  {
   "type": "Feature",
   "properties": {
    "cve_mun": "99020",
    "municipio": "Jamiltepec Demo",
    "region": "costa",
    "area_km2": 59.54,
    "synthetic": true
   },
   "geometry": {
    "type": "Polygon",
    "coordinates": [
     [
      [
       -96.76022858102316,
       16.045791349756595
      ],
      [
       -96.67903816770333,
       16.045791349756595
      ],
      [
       -96.67903816770333,
       16.108122725141296
      ],
      [
       -96.76022858102316,
       16.108122725141296
      ],
      [
       -96.76022858102316,
       16.045791349756595
      ]
     ]
    ]
   }
  },
  {
   "type": "Feature",
   "properties": {
    "cve_mun": "99021",
    "municipio": "Pinotepa Demo",
    "region": "costa",
    "area_km2": 119.2,
    "synthetic": true
   },
   "geometry": {
    "type": "Polygon",
    "coordinates": [
     [
      [
       -97.26746805178053,
       15.919689728682783
      ],
      [
       -97.16070117256265,
       15.919689728682783
      ],
      [
       -97.16070117256265,
       16.014580872862908
      ],
      [
       -97.26746805178053,
       16.014580872862908
      ],
      [
       -97.26746805178053,
       15.919689728682783
      ]
     ]
    ]
   }
  },
  {
   "type": "Feature",
   "properties": {
    "cve_mun": "99022",
    "municipio": "Huatulco Demo",
    "region": "costa",
    "area_km2": 124.15,
    "synthetic": true
   },
   "geometry": {
    "type": "Polygon",
    "coordinates": [
     [
      [
       -97.51074079706325,
       15.90508146778617
      ],
      [
       -97.37093778854364,
       15.90508146778617
      ],
      [
       -97.37093778854364,
       15.980557782469992
      ],
      [
       -97.51074079706325,
       15.980557782469992
      ],
      [
       -97.51074079706325,
       15.90508146778617
      ]
     ]
    ]
   }
  },
  {
   "type": "Feature",
   "properties": {
    "cve_mun": "99023",
    "municipio": "Tuxtepec Demo",
    "region": "papaloapan",
    "area_km2": 65.84,
    "synthetic": true
   },
   "geometry": {
    "type": "Polygon",
    "coordinates": [
     [
      [
       -96.46165843547499,
       17.805699019195274
      ],
      [
       -96.39288650504693,
       17.805699019195274
      ],
      [
       -96.39288650504693,
       17.88707132128043
      ],
      [
       -96.46165843547499,
       17.88707132128043
      ],
      [
       -96.46165843547499,
       17.805699019195274
      ]
     ]
    ]
   }
  },
  {
   "type": "Feature",
   "properties": {
    "cve_mun": "99024",
    "municipio": "Loma Bonita Demo",
    "region": "papaloapan",
    "area_km2": 52.9,
    "synthetic": true
   },
   "geometry": {
    "type": "Polygon",
    "coordinates": [
     [
      [
       -95.8988776167557,
       18.02186909924516
      ],
      [
       -95.83379540026354,
       18.02186909924516
      ],
      [
       -95.83379540026354,
       18.09095006357049
      ],
      [
       -95.8988776167557,
       18.09095006357049
      ],
      [
       -95.8988776167557,
       18.02186909924516
      ]
     ]
    ]
   }
  },
  {
   "type": "Feature",
   "properties": {
    "cve_mun": "99025",
    "municipio": "Choapam Demo",
    "region": "papaloapan",
    "area_km2": 150.72,
    "synthetic": true
   },
   "geometry": {
    "type": "Polygon",
    "coordinates": [
     [
      [
       -95.77194603091246,
       18.069784540699654
      ],
      [
       -95.63425976070337,
       18.069784540699654
      ],
      [
       -95.63425976070337,
       18.16282352581138
      ],
      [
       -95.77194603091246,
       18.16282352581138
      ],
      [
       -95.77194603091246,
       18.069784540699654
      ]
     ]
    ]
   }
  },
  {
   "type": "Feature",
   "properties": {
    "cve_mun": "99026",
    "municipio": "Ixtl\u00e1n Demo",
    "region": "sierra_norte",
    "area_km2": 103.56,
    "synthetic": true
   },
   "geometry": {
    "type": "Polygon",
    "coordinates": [
     [
      [
       -96.6992316994011,
       17.513107778645466
      ],
      [
       -96.58469486987896,
       17.513107778645466
      ],
      [
       -96.58469486987896,
       17.58995629516591
      ],
      [
       -96.6992316994011,
       17.58995629516591
      ],
      [
       -96.6992316994011,
       17.513107778645466
      ]
     ]
    ]
   }
  },
  {
   "type": "Feature",
   "properties": {
    "cve_mun": "99027",
    "municipio": "Villa Alta Demo",
    "region": "sierra_norte",
    "area_km2": 58.18,
    "synthetic": true
   },
   "geometry": {
    "type": "Polygon",
    "coordinates": [
     [
      [
       -96.49768445397704,
       17.47897329607998
      ],
      [
       -96.42876028008938,
       17.47897329607998
      ],
      [
       -96.42876028008938,
       17.55071155861344
      ],
      [
       -96.49768445397704,
       17.55071155861344
      ],
      [
       -96.49768445397704,
       17.47897329607998
      ]
     ]
    ]
   }
  },
  {
   "type": "Feature",
   "properties": {
    "cve_mun": "99028",
    "municipio": "Mixe Demo",
    "region": "sierra_norte",
    "area_km2": 96.67,
    "synthetic": true
   },
   "geometry": {
    "type": "Polygon",
    "coordinates": [
     [
      [
       -96.39742752318467,
       17.62717060039092
      ],
      [
       -96.26735928795442,
       17.62717060039092
      ],
      [
       -96.26735928795442,
       17.690340052928477
      ],
      [
       -96.39742752318467,
       17.690340052928477
      ],
      [
       -96.39742752318467,
       17.62717060039092
      ]
     ]
    ]
   }
  },
  {
   "type": "Feature",
   "properties": {
    "cve_mun": "99029",
    "municipio": "Cuicatl\u00e1n Demo",
    "region": "canada",
    "area_km2": 146.37,
    "synthetic": true
   },
   "geometry": {
    "type": "Polygon",
    "coordinates": [
     [
      [
       -97.11609483443858,
       17.623282088850956
      ],
      [
       -96.98308460729099,
       17.623282088850956
      ],
      [
       -96.98308460729099,
       17.716808017342792
      ],
      [
       -97.11609483443858,
       17.716808017342792
      ],
      [
       -97.11609483443858,
       17.623282088850956
      ]
     ]
    ]
   }
  },
  {
   "type": "Feature",
   "properties": {
    "cve_mun": "99030",
    "municipio": "Teotitl\u00e1n Demo",
    "region": "canada",
    "area_km2": 73.73,
    "synthetic": true
   },
   "geometry": {
    "type": "Polygon",
    "coordinates": [
     [
      [
       -97.24544745444348,
       17.898990735411225
      ],
      [
       -97.13672983752843,
       17.898990735411225
      ],
      [
       -97.13672983752843,
       17.956632698838703
      ],
      [
       -97.24544745444348,
       17.956632698838703
      ],
      [
       -97.24544745444348,
       17.898990735411225
      ]
     ]
    ]
   }
  }
 ]
}